OSCAR 7 (AO-7)          
1 07530U 74089B   23103.21845731 -.00000011  00000+0  22036-3 0  9991
2 07530 101.9446  89.4654 0012135 186.3492 184.8709 12.53663224215035
PHASE 3B (AO-10)        
1 14129U 83058B   23097.98141589 -.00000153  00000+0  00000+0 0  9995
2 14129  27.0600  48.0301 6037334 162.1542 235.1037  2.05868234271477
UOSAT 2 (UO-11)         
1 14781U 84021B   23103.69947087  .00002408  00000+0  29058-3 0  9995
2 14781  97.6529  83.1574 0009674  60.1704 300.0471 14.84652906105571
LUSAT (LO-19)           
1 20442U 90005G   23103.66527622  .00000345  00000+0  14217-3 0  9990
2 20442  98.8389  78.8221 0011997  13.6423 346.5082 14.33224229736166
EYESAT A (AO-27)        
1 22825U 93061C   23103.07970504  .00000170  00000+0  83382-4 0  9994
2 22825  98.8492 144.8970 0007377 255.9532 104.0830 14.30280825540984
ITAMSAT (IO-26)         
1 22826U 93061D   23104.14856410  .00000217  00000+0  10052-3 0  9998
2 22826  98.8435 145.8490 0008057 236.7686 123.2724 14.30639229541659
RADIO ROSTO (RS-15)     
1 23439U 94085A   23103.25810992 -.00000039  00000+0  10000-3 0  9998
2 23439  64.8157  20.7069 0164557 221.5661 137.2653 11.27573868165297
JAS-2 (FO-29)           
1 24278U 96046B   23103.86047971 -.00000007  00000+0  30106-4 0  9990
2 24278  98.5248  91.1959 0349542 223.6486 133.6518 13.53141121316484
TECHSAT 1B (GO-32)      
1 25397U 98043D   23103.36048131  .00000184  00000+0  10011-3 0  9993
2 25397  98.8623  60.2812 0001126  17.0454 343.0762 14.23854891286101
ISS (ZARYA)             
1 25544U 98067A   23104.37742442  .00016118  00000+0  29188-3 0  9990
2 25544  51.6390 284.7500 0006343 190.9642 251.7871 15.49783077391891
PCSAT (NO-44)           
1 26931U 01043C   23103.12699776  .00000279  00000+0  13756-3 0  9997
2 26931  67.0534   4.8115 0007218 281.3951  78.6339 14.30883393124278
SAUDISAT 1C (SO-50)     
1 27607U 02058C   23103.71632592  .00001766  00000+0  25824-3 0  9994
2 27607  64.5527 102.5549 0074365 237.5806 121.8089 14.77092752 92919
CUTE-1 (CO-55)          
1 27844U 03031E   23103.76094244  .00000563  00000+0  27059-3 0  9996
2 27844  98.6803 111.9581 0008912 318.0498  41.9997 14.22721927 26600
CUBESAT XI-IV (CO-57)   
1 27848U 03031J   23103.96106904  .00000467  00000+0  22989-3 0  9999
2 27848  98.6841 112.5946 0009053 333.4139  26.6574 14.22240078 26422
MOZHAYETS 4 (RS-22)     
1 27939U 03042A   23104.39818583  .00001967  00000+0  35011-3 0  9999
2 27939  98.2316 250.9223 0011991 343.3675  16.7145 14.68186127 45182
CUBESAT XI-V            
1 28895U 05043F   23103.62019917  .00002413  00000+0  45471-3 0  9991
2 28895  98.1422 236.2227 0015105 275.3794  84.5686 14.65391078931580
CUTE-1.7+APD II (CO-65) 
1 32785U 08021C   23103.01108495  .00004926  00000+0  49410-3 0  9994
2 32785  97.7006  70.4107 0011285 328.5040  31.5502 14.91727139811105
DELFI-C3 (DO-64)        
1 32789U 08021G   23103.09929385  .00052913  00000+0  18379-2 0  9993
2 32789  97.3118 125.3355 0006003  19.9975 340.1500 15.29557418817414
SEEDS II (CO-66)        
1 32791U 08021J   23102.67076489  .00008129  00000+0  73171-3 0  9999
2 32791  97.6514  75.3441 0009787 272.2469  87.7631 14.95839220811862
YUBILEINY (RS-30)       
1 32953U 08025A   23104.22145098  .00000024  00000+0  10000-3 0  9997
2 32953  82.5091 356.8896 0019399 327.1817  32.8057 12.43121768675709
KKS-1 (KISEKI)          
1 33499U 09002H   23103.83332207  .00001825  00000+0  26723-3 0  9994
2 33499  98.1806 355.3107 0010192  75.6696 284.5644 14.76863252764990
SWISSCUBE               
1 35932U 09051B   23103.32241683  .00001355  00000+0  30845-3 0  9991
2 35932  98.5305 332.1185 0006923 197.6072 162.4886 14.57555386719808
BEESAT-1                
1 35933U 09051C   23103.28057583  .00001172  00000+0  26870-3 0  9991
2 35933  98.5237 333.4665 0004962 208.7586 151.3339 14.57485289719832
ITUPSAT1                
1 35935U 09051E   23103.27869658  .00001072  00000+0  25161-3 0  9997
2 35935  98.5338 333.4330 0007147 217.1368 142.9335 14.56546824719547
XIWANG-1 (HOPE-1)       
1 36122U 09072B   23103.33149087  .00000011  00000+0  14221-3 0  9990
2 36122 100.2319  69.2716 0007732  17.1420 342.9953 13.16381053640261
JUGNU                   
1 37839U 11058B   23104.50410752  .00000602  00000+0  17760-3 0  9990
2 37839  19.9597 149.3009 0018624 236.4692 260.4119 14.12929058594878
SRMSAT                  
1 37841U 11058D   23103.43300590  .00000523  00000+0  14242-3 0  9996
2 37841  19.9714 241.5266 0011967  40.3398   4.8698 14.10870578593657
M-CUBED & EXP-1 PRIME   
1 37855U 11061F   23103.37162076  .00023755  00000+0  80930-3 0  9992
2 37855 101.7029  28.9344 0125946 237.8531 121.0420 15.23100895627151
STRAND-1                
1 39090U 13009E   23103.81074975  .00000506  00000+0  19036-3 0  9996
2 39090  98.3921 298.9295 0010182  96.0815 264.1531 14.35541257530502
SOMP                    
1 39134U 13015E   23103.46088856  .00075026  00000+0  13012-2 0  9992
2 39134  64.8519 146.9309 0017253 264.6699  95.2475 15.50277842553294
BEESAT-3                
1 39135U 13015F   23104.35701287  .00047199  00000+0  12451-2 0  9998
2 39135  64.8601 190.4491 0023319 247.1307 112.7367 15.37936449552536
BEESAT-2                
1 39136U 13015G   23103.37681676  .00038625  00000+0  11035-2 0  9990
2 39136  64.8696 204.3072 0026612 282.2961  77.5195 15.35449143551710
ZACUBE-1 (TSHEPISOSAT)  
1 39417U 13066B   23104.47791026  .00004719  00000+0  55136-3 0  9999
2 39417  97.6795  68.4249 0056645 135.5408 225.0374 14.84424345507749
GOMX-1                  
1 39430U 13066Q   23104.25004483  .00002162  00000+0  38319-3 0  9998
2 39430  97.7862 359.1081 0146127 175.0750 185.1935 14.61500266500203
CUBEBUG-2 (LO-74)       
1 39440U 13066AA  23104.51484898  .00003922  00000+0  51396-3 0  9995
2 39440  97.7666  55.3896 0074433 233.6182 125.8148 14.78977571505943
FUNCUBE-1 (AO-73)       
1 39444U 13066AE  23103.63582222  .00005734  00000+0  64444-3 0  9992
2 39444  97.6661  70.1091 0055293 124.4607 236.1850 14.85970406506647
UWE-3                   
1 39446U 13066AG  23103.87622317  .00003733  00000+0  46456-3 0  9990
2 39446  97.7287  60.9816 0065707 187.7497 172.2707 14.81563809505490
SPROUT                  
1 39770U 14029E   23104.57413487  .00026156  00000+0  21320-2 0  9990
2 39770  97.9643 230.1237 0009154 163.9387 254.9044 14.99416968482616
UNISAT-6                
1 40012U 14033C   23103.75035338  .00003357  00000+0  47887-3 0  9995
2 40012  97.6703 281.0047 0054697 265.2114  94.2849 14.76370059474266
DUCHIFAT-1              
1 40021U 14033M   23103.87334744  .00009809  00000+0  85883-3 0  9997
2 40021  98.0521  65.8382 0012561 121.7999 238.4447 14.96860619479562
QB50P1                  
1 40025U 14033R   23103.75391955  .00005994  00000+0  57826-3 0  9992
2 40025  97.9916  49.4169 0012332 139.7272 220.4863 14.93208760479037
ZDPS 2A                 
1 40901U 15049C   23103.01128802  .00042924  00000+0  11775-2 0  9997
2 40901  97.4509 117.1926 0008404  24.3543 335.8097 15.37111905419219
ZDPS 2B                 
1 40902U 15049D   23103.50146655  .00045711  00000+0  12140-2 0  9992
2 40902  97.4613 115.9375 0008323  20.6238 131.9202 15.38101018419274
XW-2A                   
1 40903U 15049E   23104.40145234  .00809254  34789-3  10535-2 0  9996
2 40903  97.1065 172.7936 0002783 206.2764 282.6007 16.07109773426343
KAITUO 1A               
1 40904U 15049F   23104.48797675  .00019305  00000+0  78700-3 0  9991
2 40904  97.5010 110.1795 0013340  48.7148 103.0263 15.24413344418591
2015-049G               
1 40905U 15049G   23104.13949980  .00009001  00000+0  41995-3 0  9990
2 40905  97.5252 106.8353 0015463  52.9763  11.5363 15.19976722418222
XW-2C                   
1 40906U 15049H   23103.82983895  .00015471  00000+0  62540-3 0  9996
2 40906  97.4962 110.8211 0013364  37.5608  40.4946 15.24746653418584
XW-2D                   
1 40907U 15049J   23104.46294431  .00018649  00000+0  71746-3 0  9997
2 40907  97.4950 111.8303 0012259  30.4868 127.9135 15.26371926418756
LILACSAT-2              
1 40908U 15049K   23104.29676676  .00007961  00000+0  38378-3 0  9993
2 40908  97.5272 107.5690 0015811  57.5391  67.7829 15.18875797418098
XW-2E                   
1 40909U 15049L   23104.32557955  .00033939  00000+0  10126-2 0  9990
2 40909  97.4588 117.3675 0008990   7.5455 117.8618 15.34526649419334
XW-2F                   
1 40910U 15049M   23104.15578492  .00033517  00000+0  10195-2 0  9990
2 40910  97.4673 116.4140 0009749   9.0986  56.3873 15.33910519419069
XW-2B                   
1 40911U 15049N   23104.31291316  .00018328  00000+0  70953-3 0  9998
2 40911  97.4940 112.1560 0012103  32.7572  92.3215 15.26170079418619
KAITUO 1B               
1 40912U 15049P   23103.51562495  .00040420  00000+0  10466-2 0  9999
2 40912  97.4231 120.2342 0007209 326.5483 185.7110 15.38920186419647
LAPAN-A2                
1 40931U 15052B   23104.01859769  .00001404  00000+0  10503-3 0  9995
2 40931   5.9969 184.6315 0012557 104.3951 255.7581 14.77152583407858
E-ST@R-II               
1 41459U 16025D   23104.32209263  .00028810  00000+0  92256-3 0  9999
2 41459  98.1931 299.3238 0113798 320.9351 115.8472 15.26189987383147
AAUSAT 4                
1 41460U 16025E   23104.06667567  .00082601  00000+0  16016-2 0  9994
2 41460  98.1685 309.5656 0076616 281.6366 201.8147 15.44179502383832
NUSAT-1 (FRESCO)        
1 41557U 16033B   23103.85672330  .00059785  00000+0  99687-3 0  9993
2 41557  97.3836 209.5808 0005997  15.5287 133.2656 15.51771570383627
BEESAT-4                
1 41619U 16040W   23104.09685087  .00069710  00000+0  12257-2 0  9996
2 41619  97.1677 153.5693 0007669 120.8807 239.3200 15.50219005366918
CAS-2T & KS-1Q          
1 41847U 16066G   23103.81043133  .00001753  00000+0  26844-3 0  9997
2 41847  98.5084 172.6596 0360965  30.7442 331.4357 14.39518699337548
